[{"OBJECT_NAME":"STARLINK-35206","OBJECT_ID":"2025-207Y","EPOCH":"2026-03-09T17:12:42.951456","MEAN_MOTION":15.0567138,"ECCENTRICITY":0.00010486,"INCLINATION":97.6033,"RA_OF_ASC_NODE":138.661,"ARG_OF_PERICENTER":79.172,"MEAN_ANOMALY":280.9625,"EPHEMERIS_TYPE":0,"CLASSIFICATION_TYPE":"U","NORAD_CAT_ID":65614,"ELEMENT_SET_NO":999,"REV_AT_EPOCH":2815,"BSTAR":0.00065223919,"MEAN_MOTION_DOT":9.368e-5,"MEAN_MOTION_DDOT":0},{"OBJECT_NAME":"NOAA 16 DEB","OBJECT_ID":"2000-055NX","EPOCH":"2026-03-08T23:11:13.556832","MEAN_MOTION":15.01016664,"ECCENTRICITY":0.00157984,"INCLINATION":98.8636,"RA_OF_ASC_NODE":259.6913,"ARG_OF_PERICENTER":295.8562,"MEAN_ANOMALY":64.1029,"EPHEMERIS_TYPE":0,"CLASSIFICATION_TYPE":"U","NORAD_CAT_ID":41658,"ELEMENT_SET_NO":999,"REV_AT_EPOCH":9741,"BSTAR":0.010110988,"MEAN_MOTION_DOT":0.00131742,"MEAN_MOTION_DDOT":0}]
